{
  "type": "FeatureCollection",
  "features": [
    {
      "type": "Feature",
      "properties": {
        "norad_id": 40889,
        "name": "GSAT0205 (GALILEO 9)",
        "group": "galileo",
        "lat": -54.61665394704137,
        "lon": 127.0396944964196,
        "alt_km": 23240.398404331907,
        "timestamp": "2025-12-11T08:58:27.386251+00:00",
        "meta_object_name": "GSAT0205 (GALILEO 9)",
        "meta_object_id": "2015-045A",
        "meta_epoch": "2025-12-10T08:33:32.148576",
        "meta_mean_motion": 1.7047308,
        "meta_eccentricity": 0.0005904,
        "meta_inclination": 55.0041,
        "meta_ra_of_asc_node": 226.8241,
        "meta_arg_of_pericenter": 38.7722,
        "meta_mean_anomaly": 321.3515,
        "meta_ephemeris_type": 0,
        "meta_classification_type": "U",
        "meta_norad_cat_id": 40889,
        "meta_element_set_no": 999,
        "meta_rev_at_epoch": 6379,
        "meta_bstar": 0,
        "meta_mean_motion_dot": 9e-08,
        "meta_mean_motion_ddot": 0,
        "tle_line1": "1 40889U 15045A   25344.35662209  .00000009  00000+0  00000+0 0  9992",
        "tle_line2": "2 40889  55.0041 226.8241 0005904  38.7722 321.3515  1.70473080 63793"
      },
      "geometry": {
        "type": "Point",
        "coordinates": [
          127.0396944964196,
          -54.61665394704137
        ]
      }
    },
    {
      "type": "Feature",
      "properties": {
        "norad_id": 40890,
        "name": "GSAT0206 (GALILEO 10)",
        "group": "galileo",
        "lat": 39.51943771062074,
        "lon": 11.53105446976438,
        "alt_km": 23217.96756224531,
        "timestamp": "2025-12-11T08:58:27.386273+00:00",
        "meta_object_name": "GSAT0206 (GALILEO 10)",
        "meta_object_id": "2015-045B",
        "meta_epoch": "2025-12-09T23:46:35.187456",
        "meta_mean_motion": 1.70473081,
        "meta_eccentricity": 0.0003825,
        "meta_inclination": 55.0033,
        "meta_ra_of_asc_node": 226.8293,
        "meta_arg_of_pericenter": 36.5835,
        "meta_mean_anomaly": 323.5254,
        "meta_ephemeris_type": 0,
        "meta_classification_type": "U",
        "meta_norad_cat_id": 40890,
        "meta_element_set_no": 999,
        "meta_rev_at_epoch": 6381,
        "meta_bstar": 0,
        "meta_mean_motion_dot": 9e-08,
        "meta_mean_motion_ddot": 0,
        "tle_line1": "1 40890U 15045B   25343.99068504  .00000009  00000+0  00000+0 0  9991",
        "tle_line2": "2 40890  55.0033 226.8293 0003825  36.5835 323.5254  1.70473081 63812"
      },
      "geometry": {
        "type": "Point",
        "coordinates": [
          11.53105446976438,
          39.51943771062074
        ]
      }
    },
    {
      "type": "Feature",
      "properties": {
        "norad_id": 41174,
        "name": "GSAT0209 (GALILEO 12)",
        "group": "galileo",
        "lat": 21.040035893655737,
        "lon": 121.60922989760743,
        "alt_km": 23213.61249681371,
        "timestamp": "2025-12-11T08:58:27.386299+00:00",
        "meta_object_name": "GSAT0209 (GALILEO 12)",
        "meta_object_id": "2015-079A",
        "meta_epoch": "2025-12-08T09:34:38.512704",
        "meta_mean_motion": 1.70474355,
        "meta_eccentricity": 0.00023972,
        "meta_inclination": 55.7104,
        "meta_ra_of_asc_node": 106.5001,
        "meta_arg_of_pericenter": 353.8677,
        "meta_mean_anomaly": 6.0907,
        "meta_ephemeris_type": 0,
        "meta_classification_type": "U",
        "meta_norad_cat_id": 41174,
        "meta_element_set_no": 999,
        "meta_rev_at_epoch": 6152,
        "meta_bstar": 0,
        "meta_mean_motion_dot": 1e-07,
        "meta_mean_motion_ddot": 0,
        "tle_line1": "1 41174U 15079A   25342.39905686  .00000010  00000+0  00000+0 0  9990",
        "tle_line2": "2 41174  55.7104 106.5001 0002397 353.8677   6.0907  1.70474355 61526"
      },
      "geometry": {
        "type": "Point",
        "coordinates": [
          121.60922989760743,
          21.040035893655737
        ]
      }
    },
    {
      "type": "Feature",
      "properties": {
        "norad_id": 41175,
        "name": "GSAT0208 (GALILEO 11)",
        "group": "galileo",
        "lat": -51.21796629423118,
        "lon": -15.55664792736974,
        "alt_km": 23229.921595553446,
        "timestamp": "2025-12-11T08:58:27.386314+00:00",
        "meta_object_name": "GSAT0208 (GALILEO 11)",
        "meta_object_id": "2015-079B",
        "meta_epoch": "2025-12-08T14:51:40.201056",
        "meta_mean_motion": 1.70474231,
        "meta_eccentricity": 0.0001859,
        "meta_inclination": 55.7088,
        "meta_ra_of_asc_node": 106.4912,
        "meta_arg_of_pericenter": 3.1611,
        "meta_mean_anomaly": 356.8026,
        "meta_ephemeris_type": 0,
        "meta_classification_type": "U",
        "meta_norad_cat_id": 41175,
        "meta_element_set_no": 999,
        "meta_rev_at_epoch": 6194,
        "meta_bstar": 0,
        "meta_mean_motion_dot": 1e-07,
        "meta_mean_motion_ddot": 0,
        "tle_line1": "1 41175U 15079B   25342.61921529  .00000010  00000+0  00000+0 0  9990",
        "tle_line2": "2 41175  55.7088 106.4912 0001859   3.1611 356.8026  1.70474231 61940"
      },
      "geometry": {
        "type": "Point",
        "coordinates": [
          -15.55664792736974,
          -51.21796629423118
        ]
      }
    },
    {
      "type": "Feature",
      "properties": {
        "norad_id": 41549,
        "name": "GSAT0211 (GALILEO 14)",
        "group": "galileo",
        "lat": 4.459640562879352,
        "lon": 43.75708000409981,
        "alt_km": 23233.155003862736,
        "timestamp": "2025-12-11T08:58:27.386326+00:00",
        "meta_object_name": "GSAT0211 (GALILEO 14)",
        "meta_object_id": "2016-030A",
        "meta_epoch": "2025-12-07T13:40:58.264320",
        "meta_mean_motion": 1.70472997,
        "meta_eccentricity": 0.00040128,
        "meta_inclination": 55.154,
        "meta_ra_of_asc_node": 226.9659,
        "meta_arg_of_pericenter": 14.4678,
        "meta_mean_anomaly": 345.6377,
        "meta_ephemeris_type": 0,
        "meta_classification_type": "U",
        "meta_norad_cat_id": 41549,
        "meta_element_set_no": 999,
        "meta_rev_at_epoch": 5940,
        "meta_bstar": 0,
        "meta_mean_motion_dot": 2.3e-07,
        "meta_mean_motion_ddot": 0,
        "tle_line1": "1 41549U 16030A   25341.57011880  .00000023  00000+0  00000+0 0  9991",
        "tle_line2": "2 41549  55.1540 226.9659 0004012  14.4678 345.6377  1.70472997 59400"
      },
      "geometry": {
        "type": "Point",
        "coordinates": [
          43.75708000409981,
          4.459640562879352
        ]
      }
    },
    {
      "type": "Feature",
      "properties": {
        "norad_id": 41550,
        "name": "GSAT0210 (GALILEO 13)",
        "group": "galileo",
        "lat": 13.495530397483908,
        "lon": -123.51604777962228,
        "alt_km": 23223.29566231446,
        "timestamp": "2025-12-11T08:58:27.386338+00:00",
        "meta_object_name": "GSAT0210 (GALILEO 13)",
        "meta_object_id": "2016-030B",
        "meta_epoch": "2025-12-10T18:15:00.861696",
        "meta_mean_motion": 1.7047362,
        "meta_eccentricity": 0.0001273,
        "meta_inclination": 55.1522,
        "meta_ra_of_asc_node": 226.8761,
        "meta_arg_of_pericenter": 243.214,
        "meta_mean_anomaly": 116.853,
        "meta_ephemeris_type": 0,
        "meta_classification_type": "U",
        "meta_norad_cat_id": 41550,
        "meta_element_set_no": 999,
        "meta_rev_at_epoch": 5945,
        "meta_bstar": 0,
        "meta_mean_motion_dot": 9e-08,
        "meta_mean_motion_ddot": 0,
        "tle_line1": "1 41550U 16030B   25344.76042664  .00000009  00000+0  00000+0 0  9995",
        "tle_line2": "2 41550  55.1522 226.8761 0001273 243.2140 116.8530  1.70473620 59455"
      },
      "geometry": {
        "type": "Point",
        "coordinates": [
          -123.51604777962228,
          13.495530397483908
        ]
      }
    },
    {
      "type": "Feature",
      "properties": {
        "norad_id": 41859,
        "name": "GSAT0207 (GALILEO 15)",
        "group": "galileo",
        "lat": -20.938306889150294,
        "lon": -58.41069679080679,
        "alt_km": 23228.06982646762,
        "timestamp": "2025-12-11T08:58:27.386353+00:00",
        "meta_object_name": "GSAT0207 (GALILEO 15)",
        "meta_object_id": "2016-069A",
        "meta_epoch": "2025-12-09T20:46:23.344608",
        "meta_mean_motion": 1.70474355,
        "meta_eccentricity": 0.00021941,
        "meta_inclination": 55.3802,
        "meta_ra_of_asc_node": 106.3298,
        "meta_arg_of_pericenter": 323.9491,
        "meta_mean_anomaly": 36.0038,
        "meta_ephemeris_type": 0,
        "meta_classification_type": "U",
        "meta_norad_cat_id": 41859,
        "meta_element_set_no": 999,
        "meta_rev_at_epoch": 5617,
        "meta_bstar": 0,
        "meta_mean_motion_dot": 1.1e-07,
        "meta_mean_motion_ddot": 0,
        "tle_line1": "1 41859U 16069A   25343.86554797  .00000011  00000+0  00000+0 0  9997",
        "tle_line2": "2 41859  55.3802 106.3298 0002194 323.9491  36.0038  1.70474355 56173"
      },
      "geometry": {
        "type": "Point",
        "coordinates": [
          -58.41069679080679,
          -20.938306889150294
        ]
      }
    }
  ]
}